{
  "norad_id": 68110,
  "name": "STARLINK-36830",
  "history": [
    {
      "epoch": "2026-03-28T19:54:00.333792Z",
      "apogee_km": 345.00157557587863,
      "perigee_km": 342.752389697288,
      "latitude_deg": 9.197066015454824e-05,
      "longitude_deg": -75.82340615677295,
      "height_km": 347.598257000916,
      "semi_major_axis_km": 6722.013982636583,
      "eccentricity": 0.0001673,
      "inclination_deg": 97.2846,
      "raan_deg": 48.922,
      "arg_perigee_deg": 119.5751,
      "mean_anomaly_deg": 240.5682,
      "mean_motion_rev_day": 15.75265076
    },
    {
      "epoch": "2026-03-29T05:02:55.514400Z",
      "apogee_km": 345.7946055410548,
      "perigee_km": 343.60161672780396,
      "latitude_deg": 1.5627089314842714e-05,
      "longitude_deg": 146.97106221967692,
      "height_km": 348.6489646995427,
      "semi_major_axis_km": 6722.835111134429,
      "eccentricity": 0.0001631,
      "inclination_deg": 97.2843,
      "raan_deg": 49.3221,
      "arg_perigee_deg": 135.6758,
      "mean_anomaly_deg": 224.4638,
      "mean_motion_rev_day": 15.7497648
    },
    {
      "epoch": "2026-03-29T23:22:09.433056Z",
      "apogee_km": 357.6850145779372,
      "perigee_km": 349.8638798585589,
      "latitude_deg": 3.4563240011488317e-06,
      "longitude_deg": -127.79112779884917,
      "height_km": 359.77113716062655,
      "semi_major_axis_km": 6731.911447218247,
      "eccentricity": 0.0005809,
      "inclination_deg": 97.2841,
      "raan_deg": 50.1203,
      "arg_perigee_deg": 136.5566,
      "mean_anomaly_deg": 223.6156,
      "mean_motion_rev_day": 15.71792348
    }
  ]
}